[{"COMMENT":"GENERATED VIA SPACETRACK.ORG API","ORIGINATOR":"18 SPCS","NORAD_CAT_ID":"43477","OBJECT_NAME":"GRACE-FO 2","OBJECT_TYPE":"PAYLOAD","CLASSIFICATION_TYPE":"U","INTLDES":"18047B","EPOCH":"2023-10-06 14:11:37","EPOCH_MICROSECONDS":"246848","MEAN_MOTION":"15.26980985","ECCENTRICITY":"0.001234","INCLINATION":"88.9876","RA_OF_ASC_NODE":"334.0431","ARG_OF_PERICENTER":"340.702","MEAN_ANOMALY":"19.376","EPHEMERIS_TYPE":"0","ELEMENT_SET_NO":"999","REV_AT_EPOCH":"29899","BSTAR":"0.00020195","MEAN_MOTION_DOT":"0.00005384","MEAN_MOTION_DDOT":"0","FILE":"4026447","TLE_LINE0":"0 GRACE-FO 2","TLE_LINE1":"1 43477U 18047B   23279.59140332  .00005384  00000-0  20195-3 0  9995","TLE_LINE2":"2 43477  88.9876 334.0431 0012340 340.7020  19.3760 15.26980985298993","OBJECT_ID":"2018-047B","OBJECT_NUMBER":"43477","SEMIMAJOR_AXIS":"6862.980","PERIOD":"94.304","APOGEE":"493.314","PERIGEE":"476.376","DECAYED":"0"},{"COMMENT":"GENERATED VIA SPACETRACK.ORG API","ORIGINATOR":"18 SPCS","NORAD_CAT_ID":"43477","OBJECT_NAME":"GRACE-FO 2","OBJECT_TYPE":"PAYLOAD","CLASSIFICATION_TYPE":"U","INTLDES":"18047B","EPOCH":"2023-10-06 22:03:28","EPOCH_MICROSECONDS":"110240","MEAN_MOTION":"15.26984532","ECCENTRICITY":"0.0012272","INCLINATION":"88.9876","RA_OF_ASC_NODE":"333.9985","ARG_OF_PERICENTER":"339.3071","MEAN_ANOMALY":"20.7679","EPHEMERIS_TYPE":"0","ELEMENT_SET_NO":"999","REV_AT_EPOCH":"29904","BSTAR":"0.00020921","MEAN_MOTION_DOT":"0.00005577","MEAN_MOTION_DDOT":"0","FILE":"4026736","TLE_LINE0":"0 GRACE-FO 2","TLE_LINE1":"1 43477U 18047B   23279.91907535  .00005577  00000-0  20921-3 0  9998","TLE_LINE2":"2 43477  88.9876 333.9985 0012272 339.3071  20.7679 15.26984532299043","OBJECT_ID":"2018-047B","OBJECT_NUMBER":"43477","SEMIMAJOR_AXIS":"6862.970","PERIOD":"94.304","APOGEE":"493.257","PERIGEE":"476.412","DECAYED":"0"},{"COMMENT":"GENERATED VIA SPACETRACK.ORG API","ORIGINATOR":"18 SPCS","NORAD_CAT_ID":"43477","OBJECT_NAME":"GRACE-FO 2","OBJECT_TYPE":"PAYLOAD","CLASSIFICATION_TYPE":"U","INTLDES":"18047B","EPOCH":"2023-10-07 13:47:09","EPOCH_MICROSECONDS":"651264","MEAN_MOTION":"15.26990953","ECCENTRICITY":"0.0012149","INCLINATION":"88.9876","RA_OF_ASC_NODE":"333.9093","ARG_OF_PERICENTER":"336.5575","MEAN_ANOMALY":"23.5118","EPHEMERIS_TYPE":"0","ELEMENT_SET_NO":"999","REV_AT_EPOCH":"29914","BSTAR":"0.00020298","MEAN_MOTION_DOT":"0.00005412","MEAN_MOTION_DDOT":"0","FILE":"4027321","TLE_LINE0":"0 GRACE-FO 2","TLE_LINE1":"1 43477U 18047B   23280.57441726  .00005412  00000-0  20298-3 0  9992","TLE_LINE2":"2 43477  88.9876 333.9093 0012149 336.5575  23.5118 15.26990953299148","OBJECT_ID":"2018-047B","OBJECT_NUMBER":"43477","SEMIMAJOR_AXIS":"6862.950","PERIOD":"94.303","APOGEE":"493.153","PERIGEE":"476.478","DECAYED":"0"},{"COMMENT":"GENERATED VIA SPACETRACK.ORG API","ORIGINATOR":"18 SPCS","NORAD_CAT_ID":"43477","OBJECT_NAME":"GRACE-FO 2","OBJECT_TYPE":"PAYLOAD","CLASSIFICATION_TYPE":"U","INTLDES":"18047B","EPOCH":"2023-10-07 18:30:16","EPOCH_MICROSECONDS":"64928","MEAN_MOTION":"15.26993036","ECCENTRICITY":"0.0012104","INCLINATION":"88.9876","RA_OF_ASC_NODE":"333.8826","ARG_OF_PERICENTER":"335.7004","MEAN_ANOMALY":"24.3673","EPHEMERIS_TYPE":"0","ELEMENT_SET_NO":"999","REV_AT_EPOCH":"29917","BSTAR":"0.00020681","MEAN_MOTION_DOT":"0.00005514","MEAN_MOTION_DDOT":"0","FILE":"4027387","TLE_LINE0":"0 GRACE-FO 2","TLE_LINE1":"1 43477U 18047B   23280.77101927  .00005514  00000-0  20681-3 0  9999","TLE_LINE2":"2 43477  88.9876 333.8826 0012104 335.7004  24.3673 15.26993036299173","OBJECT_ID":"2018-047B","OBJECT_NUMBER":"43477","SEMIMAJOR_AXIS":"6862.944","PERIOD":"94.303","APOGEE":"493.116","PERIGEE":"476.502","DECAYED":"0"},{"COMMENT":"GENERATED VIA SPACETRACK.ORG API","ORIGINATOR":"18 SPCS","NORAD_CAT_ID":"43477","OBJECT_NAME":"GRACE-FO 2","OBJECT_TYPE":"PAYLOAD","CLASSIFICATION_TYPE":"U","INTLDES":"18047B","EPOCH":"2023-10-07 21:39:00","EPOCH_MICROSECONDS":"329760","MEAN_MOTION":"15.26994289","ECCENTRICITY":"0.001207","INCLINATION":"88.9876","RA_OF_ASC_NODE":"333.8647","ARG_OF_PERICENTER":"335.1058","MEAN_ANOMALY":"24.9608","EPHEMERIS_TYPE":"0","ELEMENT_SET_NO":"999","REV_AT_EPOCH":"29919","BSTAR":"0.00020846","MEAN_MOTION_DOT":"0.00005558","MEAN_MOTION_DDOT":"0","FILE":"4027648","TLE_LINE0":"0 GRACE-FO 2","TLE_LINE1":"1 43477U 18047B   23280.90208715  .00005558  00000-0  20846-3 0  9998","TLE_LINE2":"2 43477  88.9876 333.8647 0012070 335.1058  24.9608 15.26994289299196","OBJECT_ID":"2018-047B","OBJECT_NUMBER":"43477","SEMIMAJOR_AXIS":"6862.940","PERIOD":"94.303","APOGEE":"493.089","PERIGEE":"476.522","DECAYED":"0"},{"COMMENT":"GENERATED VIA SPACETRACK.ORG API","ORIGINATOR":"18 SPCS","NORAD_CAT_ID":"43477","OBJECT_NAME":"GRACE-FO 2","OBJECT_TYPE":"PAYLOAD","CLASSIFICATION_TYPE":"U","INTLDES":"18047B","EPOCH":"2023-10-08 13:22:41","EPOCH_MICROSECONDS":"475072","MEAN_MOTION":"15.27001546","ECCENTRICITY":"0.0011982","INCLINATION":"88.9876","RA_OF_ASC_NODE":"333.7755","ARG_OF_PERICENTER":"332.3829","MEAN_ANOMALY":"27.6783","EPHEMERIS_TYPE":"0","ELEMENT_SET_NO":"999","REV_AT_EPOCH":"29929","BSTAR":"0.00020863","MEAN_MOTION_DOT":"0.00005564","MEAN_MOTION_DDOT":"0","FILE":"4028261","TLE_LINE0":"0 GRACE-FO 2","TLE_LINE1":"1 43477U 18047B   23281.55742448  .00005564  00000-0  20863-3 0  9992","TLE_LINE2":"2 43477  88.9876 333.7755 0011982 332.3829  27.6783 15.27001546299292","OBJECT_ID":"2018-047B","OBJECT_NUMBER":"43477","SEMIMAJOR_AXIS":"6862.919","PERIOD":"94.302","APOGEE":"493.007","PERIGEE":"476.561","DECAYED":"0"},{"COMMENT":"GENERATED VIA SPACETRACK.ORG API","ORIGINATOR":"18 SPCS","NORAD_CAT_ID":"43477","OBJECT_NAME":"GRACE-FO 2","OBJECT_TYPE":"PAYLOAD","CLASSIFICATION_TYPE":"U","INTLDES":"18047B","EPOCH":"2023-10-08 21:14:31","EPOCH_MICROSECONDS":"938432","MEAN_MOTION":"15.27005386","ECCENTRICITY":"0.0011923","INCLINATION":"88.9877","RA_OF_ASC_NODE":"333.7309","ARG_OF_PERICENTER":"330.9836","MEAN_ANOMALY":"29.0749","EPHEMERIS_TYPE":"0","ELEMENT_SET_NO":"999","REV_AT_EPOCH":"29934","BSTAR":"0.00021398","MEAN_MOTION_DOT":"0.00005706","MEAN_MOTION_DDOT":"0","FILE":"4028564","TLE_LINE0":"0 GRACE-FO 2","TLE_LINE1":"1 43477U 18047B   23281.88509188  .00005706  00000-0  21398-3 0  9992","TLE_LINE2":"2 43477  88.9877 333.7309 0011923 330.9836  29.0749 15.27005386299345","OBJECT_ID":"2018-047B","OBJECT_NUMBER":"43477","SEMIMAJOR_AXIS":"6862.907","PERIOD":"94.302","APOGEE":"492.955","PERIGEE":"476.590","DECAYED":"0"},{"COMMENT":"GENERATED VIA SPACETRACK.ORG API","ORIGINATOR":"18 SPCS","NORAD_CAT_ID":"43477","OBJECT_NAME":"GRACE-FO 2","OBJECT_TYPE":"PAYLOAD","CLASSIFICATION_TYPE":"U","INTLDES":"18047B","EPOCH":"2023-10-09 03:32:00","EPOCH_MICROSECONDS":"265056","MEAN_MOTION":"15.2700825","ECCENTRICITY":"0.0011883","INCLINATION":"88.9877","RA_OF_ASC_NODE":"333.6953","ARG_OF_PERICENTER":"329.8487","MEAN_ANOMALY":"30.2077","EPHEMERIS_TYPE":"0","ELEMENT_SET_NO":"999","REV_AT_EPOCH":"29938","BSTAR":"0.00020904","MEAN_MOTION_DOT":"0.00005575","MEAN_MOTION_DDOT":"0","FILE":"4028619","TLE_LINE0":"0 GRACE-FO 2","TLE_LINE1":"1 43477U 18047B   23282.14722529  .00005575  00000-0  20904-3 0  9994","TLE_LINE2":"2 43477  88.9877 333.6953 0011883 329.8487  30.2077 15.27008250299388","OBJECT_ID":"2018-047B","OBJECT_NUMBER":"43477","SEMIMAJOR_AXIS":"6862.899","PERIOD":"94.302","APOGEE":"492.919","PERIGEE":"476.608","DECAYED":"0"},{"COMMENT":"GENERATED VIA SPACETRACK.ORG API","ORIGINATOR":"18 SPCS","NORAD_CAT_ID":"43477","OBJECT_NAME":"GRACE-FO 2","OBJECT_TYPE":"PAYLOAD","CLASSIFICATION_TYPE":"U","INTLDES":"18047B","EPOCH":"2023-10-09 14:32:34","EPOCH_MICROSECONDS":"746144","MEAN_MOTION":"15.27012722","ECCENTRICITY":"0.0011817","INCLINATION":"88.9877","RA_OF_ASC_NODE":"333.6329","ARG_OF_PERICENTER":"327.9058","MEAN_ANOMALY":"32.147","EPHEMERIS_TYPE":"0","ELEMENT_SET_NO":"999","REV_AT_EPOCH":"29945","BSTAR":"0.00019674","MEAN_MOTION_DOT":"0.0000525","MEAN_MOTION_DDOT":"0","FILE":"4029150","TLE_LINE0":"0 GRACE-FO 2","TLE_LINE1":"1 43477U 18047B   23282.60595771  .00005250  00000-0  19674-3 0  9994","TLE_LINE2":"2 43477  88.9877 333.6329 0011817 327.9058  32.1470 15.27012722299450","OBJECT_ID":"2018-047B","OBJECT_NUMBER":"43477","SEMIMAJOR_AXIS":"6862.885","PERIOD":"94.302","APOGEE":"492.860","PERIGEE":"476.640","DECAYED":"0"},{"COMMENT":"GENERATED VIA SPACETRACK.ORG API","ORIGINATOR":"18 SPCS","NORAD_CAT_ID":"43477","OBJECT_NAME":"GRACE-FO 2","OBJECT_TYPE":"PAYLOAD","CLASSIFICATION_TYPE":"U","INTLDES":"18047B","EPOCH":"2023-10-09 22:24:24","EPOCH_MICROSECONDS":"975360","MEAN_MOTION":"15.27017123","ECCENTRICITY":"0.0011732","INCLINATION":"88.9876","RA_OF_ASC_NODE":"333.5883","ARG_OF_PERICENTER":"326.3911","MEAN_ANOMALY":"33.6593","EPHEMERIS_TYPE":"0","ELEMENT_SET_NO":"999","REV_AT_EPOCH":"29950","BSTAR":"0.00020529","MEAN_MOTION_DOT":"0.00005477","MEAN_MOTION_DDOT":"0","FILE":"4029504","TLE_LINE0":"0 GRACE-FO 2","TLE_LINE1":"1 43477U 18047B   23282.93362240  .00005477  00000-0  20529-3 0  9995","TLE_LINE2":"2 43477  88.9876 333.5883 0011732 326.3911  33.6593 15.27017123299508","OBJECT_ID":"2018-047B","OBJECT_NUMBER":"43477","SEMIMAJOR_AXIS":"6862.872","PERIOD":"94.301","APOGEE":"492.789","PERIGEE":"476.686","DECAYED":"0"}]